start=new Date('2022-04-23T00:00:00.000Z').valueOf();
sats=[{"PERIAPSIS":"545.913","MEAN_MOTION_DOT":"0.00005931","BSTAR":"0.00041654000000","CLASSIFICATION_TYPE":"U","FILE":"3411458","TLE_LINE2":"2 44920  53.0542 228.2941 0001803  55.5323 304.5836 15.06417099126250","GP_ID":"201822768","NORAD_CAT_ID":"44920","REF_FRAME":"TEME","OBJECT_ID":"2020-001G","RA_OF_ASC_NODE":"228.2941","MEAN_ELEMENT_THEORY":"SGP4","OBJECT_NAME":"STARLINK-1102","APOAPSIS":"548.410","MEAN_MOTION":"15.06417099","PERIOD":"95.591","TLE_LINE1":"1 44920U 20001G   22112.57554662  .00005931  00000-0  41654-3 0  9991","INCLINATION":"53.0542","RCS_SIZE":"LARGE","EPOCH":"2022-04-22T13:48:47.227968","ECCENTRICITY":"0.00018030","TIME_SYSTEM":"UTC","SEMIMAJOR_AXIS":"6925.296","REV_AT_EPOCH":"12625","MEAN_ANOMALY":"304.5836","ELEMENT_SET_NO":"999","CENTER_NAME":"EARTH","DECAY_DATE":null,"ARG_OF_PERICENTER":"55.5323","SITE":"AFETR","OBJECT_TYPE":"PAYLOAD","EPHEMERIS_TYPE":"0","MEAN_MOTION_DDOT":"0.0000000000000","COUNTRY_CODE":"US","LAUNCH_DATE":"2020-01-07"},{"REF_FRAME":"TEME","TLE_LINE2":"2 44921  53.0528 227.5821 0001554  61.8299 298.2847 15.06409979126258","NORAD_CAT_ID":"44921","GP_ID":"201832682","FILE":"3411696","CLASSIFICATION_TYPE":"U","BSTAR":"0.00031801000000","MEAN_MOTION_DOT":"0.00004460","PERIAPSIS":"546.107","INCLINATION":"53.0528","RCS_SIZE":"LARGE","TLE_LINE1":"1 44921U 20001H   22112.73035615  .00004460  00000-0  31801-3 0  9991","PERIOD":"95.592","MEAN_MOTION":"15.06409979","APOAPSIS":"548.259","OBJECT_NAME":"STARLINK-1103","MEAN_ELEMENT_THEORY":"SGP4","RA_OF_ASC_NODE":"227.5821","OBJECT_ID":"2020-001H","DECAY_DATE":null,"CENTER_NAME":"EARTH","ELEMENT_SET_NO":"999","MEAN_ANOMALY":"298.2847","REV_AT_EPOCH":"12625","SEMIMAJOR_AXIS":"6925.318","TIME_SYSTEM":"UTC","ECCENTRICITY":"0.00015540","EPOCH":"2022-04-22T17:31:42.771360","LAUNCH_DATE":"2020-01-07","COUNTRY_CODE":"US","MEAN_MOTION_DDOT":"0.0000000000000","SITE":"AFETR","OBJECT_TYPE":"PAYLOAD","EPHEMERIS_TYPE":"0","ARG_OF_PERICENTER":"61.8299"},{"OBJECT_NAME":"STARLINK-1104","APOAPSIS":"548.248","MEAN_MOTION":"15.06402421","RA_OF_ASC_NODE":"228.6239","MEAN_ELEMENT_THEORY":"SGP4","OBJECT_ID":"2020-001J","RCS_SIZE":"LARGE","INCLINATION":"53.0552","TLE_LINE1":"1 44922U 20001J   22112.49814557  .00001179  00000-0  98009-4 0  9993","PERIOD":"95.592","BSTAR":"0.00009800900000","MEAN_MOTION_DOT":"0.00001179","PERIAPSIS":"546.165","REF_FRAME":"TEME","FILE":"3411458","GP_ID":"201821767","TLE_LINE2":"2 44922  53.0552 228.6239 0001504  69.0062 291.1088 15.06402421126247","NORAD_CAT_ID":"44922","CLASSIFICATION_TYPE":"U","ARG_OF_PERICENTER":"69.0062","SITE":"AFETR","OBJECT_TYPE":"PAYLOAD","EPHEMERIS_TYPE":"0","MEAN_MOTION_DDOT":"0.0000000000000","COUNTRY_CODE":"US","LAUNCH_DATE":"2020-01-07","ECCENTRICITY":"0.00015040","EPOCH":"2022-04-22T11:57:19.777248","CENTER_NAME":"EARTH","DECAY_DATE":null,"ELEMENT_SET_NO":"999","REV_AT_EPOCH":"12624","MEAN_ANOMALY":"291.1088","TIME_SYSTEM":"UTC","SEMIMAJOR_AXIS":"6925.341"},{"LAUNCH_DATE":"2020-01-07","COUNTRY_CODE":"US","MEAN_MOTION_DDOT":"0.0000000000000","SITE":"AFETR","OBJECT_TYPE":"PAYLOAD","EPHEMERIS_TYPE":"0","ARG_OF_PERICENTER":"71.9049","ELEMENT_SET_NO":"999","DECAY_DATE":null,"CENTER_NAME":"EARTH","SEMIMAJOR_AXIS":"6925.320","TIME_SYSTEM":"UTC","MEAN_ANOMALY":"288.2109","REV_AT_EPOCH":"12625","ECCENTRICITY":"0.00015500","EPOCH":"2022-04-22T14:10:00.813216","RCS_SIZE":"LARGE","INCLINATION":"53.0545","PERIOD":"95.592","TLE_LINE1":"1 44923U 20001K   22112.59028719  .00002225  00000-0  16816-3 0  9990","MEAN_ELEMENT_THEORY":"SGP4","RA_OF_ASC_NODE":"228.2251","APOAPSIS":"548.259","MEAN_MOTION":"15.06409243","OBJECT_NAME":"STARLINK-1106","OBJECT_ID":"2020-001K","NORAD_CAT_ID":"44923","TLE_LINE2":"2 44923  53.0545 228.2251 0001550  71.9049 288.2109 15.06409243126259","GP_ID":"201822019","FILE":"3411458","REF_FRAME":"TEME","CLASSIFICATION_TYPE":"U","BSTAR":"0.00016816000000","PERIAPSIS":"546.112","MEAN_MOTION_DOT":"0.00002225"},{"RA_OF_ASC_NODE":"228.2773","MEAN_ELEMENT_THEORY":"SGP4","OBJECT_NAME":"STARLINK-1111","MEAN_MOTION":"15.06402379","APOAPSIS":"548.337","OBJECT_ID":"2020-001L","INCLINATION":"53.0544","RCS_SIZE":"LARGE","PERIOD":"95.592","TLE_LINE1":"1 44924U 20001L   22112.57923930  .00002524  00000-0  18830-3 0  9998","BSTAR":"0.00018830000000","PERIAPSIS":"546.075","MEAN_MOTION_DOT":"0.00002524","FILE":"3411458","TLE_LINE2":"2 44924  53.0544 228.2773 0001633  61.5186 298.5968 15.06402379126257","NORAD_CAT_ID":"44924","GP_ID":"201822269","REF_FRAME":"TEME","CLASSIFICATION_TYPE":"U","ARG_OF_PERICENTER":"61.5186","SITE":"AFETR","OBJECT_TYPE":"PAYLOAD","EPHEMERIS_TYPE":"0","MEAN_MOTION_DDOT":"0.0000000000000","COUNTRY_CODE":"US","LAUNCH_DATE":"2020-01-07","ECCENTRICITY":"0.00016330","EPOCH":"2022-04-22T13:54:06.275520","ELEMENT_SET_NO":"999","CENTER_NAME":"EARTH","DECAY_DATE":null,"SEMIMAJOR_AXIS":"6925.341","TIME_SYSTEM":"UTC","REV_AT_EPOCH":"12625","MEAN_ANOMALY":"298.5968"},{"BSTAR":"0.00056154000000","MEAN_MOTION_DOT":"0.00008097","PERIAPSIS":"545.954","REF_FRAME":"TEME","FILE":"3411696","GP_ID":"201833184","TLE_LINE2":"2 44925  53.0531 227.6045 0001729  45.3323 314.7807 15.06420187126270","NORAD_CAT_ID":"44925","CLASSIFICATION_TYPE":"U","OBJECT_NAME":"STARLINK-1112","APOAPSIS":"548.349","MEAN_MOTION":"15.06420187","RA_OF_ASC_NODE":"227.6045","MEAN_ELEMENT_THEORY":"SGP4","OBJECT_ID":"2020-001M","INCLINATION":"53.0531","RCS_SIZE":"LARGE","TLE_LINE1":"1 44925U 20001M   22112.72667073  .00008097  00000-0  56154-3 0  9991","PERIOD":"95.591","ECCENTRICITY":"0.00017290","EPOCH":"2022-04-22T17:26:24.351072","CENTER_NAME":"EARTH","DECAY_DATE":null,"ELEMENT_SET_NO":"999","REV_AT_EPOCH":"12627","MEAN_ANOMALY":"314.7807","SEMIMAJOR_AXIS":"6925.287","TIME_SYSTEM":"UTC","ARG_OF_PERICENTER":"45.3323","SITE":"AFETR","OBJECT_TYPE":"PAYLOAD","EPHEMERIS_TYPE":"0","MEAN_MOTION_DDOT":"0.0000000000000","COUNTRY_CODE":"US","LAUNCH_DATE":"2020-01-07"},{"PERIOD":"95.643","TLE_LINE1":"1 44926U 20001N   22112.57276995  .00000921  00000-0  82316-4 0  9992","INCLINATION":"53.0022","RCS_SIZE":"LARGE","OBJECT_ID":"2020-001N","RA_OF_ASC_NODE":"228.3128","MEAN_ELEMENT_THEORY":"SGP4","OBJECT_NAME":"STARLINK-1113","APOAPSIS":"550.736","MEAN_MOTION":"15.05600848","CLASSIFICATION_TYPE":"U","FILE":"3411458","GP_ID":"201821268","TLE_LINE2":"2 44926  53.0022 228.3128 0001548  83.6794 276.4371 15.05600848126961","NORAD_CAT_ID":"44926","REF_FRAME":"TEME","PERIAPSIS":"548.592","MEAN_MOTION_DOT":"0.00000921","BSTAR":"0.00008231600000","MEAN_MOTION_DDOT":"0.0000000000000","COUNTRY_CODE":"US","LAUNCH_DATE":"2020-01-07","ARG_OF_PERICENTER":"83.6794","OBJECT_TYPE":"PAYLOAD","SITE":"AFETR","EPHEMERIS_TYPE":"0","TIME_SYSTEM":"UTC","SEMIMAJOR_AXIS":"6927.799","REV_AT_EPOCH":"12696","MEAN_ANOMALY":"276.4371","ELEMENT_SET_NO":"999","CENTER_NAME":"EARTH","DECAY_DATE":null,"EPOCH":"2022-04-22T13:44:47.323680","ECCENTRICITY":"0.00015480"},{"EPOCH":"2022-04-22T14:31:14.537568","ECCENTRICITY":"0.00020620","SEMIMAJOR_AXIS":"6925.296","TIME_SYSTEM":"UTC","REV_AT_EPOCH":"12626","MEAN_ANOMALY":"301.3368","ELEMENT_SET_NO":"999","CENTER_NAME":"EARTH","DECAY_DATE":null,"ARG_OF_PERICENTER":"58.7823","SITE":"AFETR","OBJECT_TYPE":"PAYLOAD","EPHEMERIS_TYPE":"0","COUNTRY_CODE":"US","MEAN_MOTION_DDOT":"0.0000000000000","LAUNCH_DATE":"2020-01-07","PERIAPSIS":"545.733","MEAN_MOTION_DOT":"-0.00004166","BSTAR":"-0.00026077000000","CLASSIFICATION_TYPE":"U","FILE":"3411458","TLE_LINE2":"2 44927  53.0532 228.1472 0002062  58.7823 301.3368 15.06417221126265","GP_ID":"201822519","NORAD_CAT_ID":"44927","REF_FRAME":"TEME","OBJECT_ID":"2020-001P","RA_OF_ASC_NODE":"228.1472","MEAN_ELEMENT_THEORY":"SGP4","OBJECT_NAME":"STARLINK-1114","MEAN_MOTION":"15.06417221","APOAPSIS":"548.589","PERIOD":"95.591","TLE_LINE1":"1 44927U 20001P   22112.60502937 -.00004166  00000-0 -26077-3 0  9993","INCLINATION":"53.0532","RCS_SIZE":"LARGE"},{"BSTAR":"0.00011206000000","PERIAPSIS":"546.068","MEAN_MOTION_DOT":"0.00001388","GP_ID":"201822769","TLE_LINE2":"2 44928  53.0524 228.7669 0001655  48.1936 311.9194 15.06399700126249","NORAD_CAT_ID":"44928","FILE":"3411458","REF_FRAME":"TEME","CLASSIFICATION_TYPE":"U","MEAN_ELEMENT_THEORY":"SGP4","RA_OF_ASC_NODE":"228.7669","MEAN_MOTION":"15.06399700","APOAPSIS":"548.361","OBJECT_NAME":"STARLINK-1119","OBJECT_ID":"2020-001Q","RCS_SIZE":"LARGE","INCLINATION":"53.0524","PERIOD":"95.592","TLE_LINE1":"1 44928U 20001Q   22112.46865601  .00001388  00000-0  11206-3 0  9997","ECCENTRICITY":"0.00016550","EPOCH":"2022-04-22T11:14:51.879264","ELEMENT_SET_NO":"999","DECAY_DATE":null,"CENTER_NAME":"EARTH","SEMIMAJOR_AXIS":"6925.349","TIME_SYSTEM":"UTC","MEAN_ANOMALY":"311.9194","REV_AT_EPOCH":"12624","SITE":"AFETR","EPHEMERIS_TYPE":"0","OBJECT_TYPE":"PAYLOAD","ARG_OF_PERICENTER":"48.1936","LAUNCH_DATE":"2020-01-07","COUNTRY_CODE":"US","MEAN_MOTION_DDOT":"0.0000000000000"},{"COUNTRY_CODE":"US","MEAN_MOTION_DDOT":"0.0000000000000","LAUNCH_DATE":"2020-01-07","ARG_OF_PERICENTER":"48.6872","SITE":"AFETR","OBJECT_TYPE":"PAYLOAD","EPHEMERIS_TYPE":"0","CENTER_NAME":"EARTH","DECAY_DATE":null,"ELEMENT_SET_NO":"999","REV_AT_EPOCH":"12625","MEAN_ANOMALY":"311.4260","SEMIMAJOR_AXIS":"6925.354","TIME_SYSTEM":"UTC","ECCENTRICITY":"0.00016660","EPOCH":"2022-04-22T14:04:42.907008","INCLINATION":"53.0549","RCS_SIZE":"LARGE","TLE_LINE1":"1 44929U 20001R   22112.58660772  .00001692  00000-0  13247-3 0  9998","PERIOD":"95.592","OBJECT_NAME":"STARLINK-1121","APOAPSIS":"548.372","MEAN_MOTION":"15.06398322","RA_OF_ASC_NODE":"228.2292","MEAN_ELEMENT_THEORY":"SGP4","OBJECT_ID":"2020-001R","REF_FRAME":"TEME","FILE":"3411458","GP_ID":"201821518","TLE_LINE2":"2 44929  53.0549 228.2292 0001666  48.6872 311.4260 15.06398322126259","NORAD_CAT_ID":"44929","CLASSIFICATION_TYPE":"U","BSTAR":"0.00013247000000","MEAN_MOTION_DOT":"0.00001692","PERIAPSIS":"546.065"}];
